NAVSTAR 43 (USA 132)    
1 24876U 97035A   26063.00132375  .00000020  00000+0  00000+0 0  9999
2 24876  55.9351 102.6869 0097933  56.2678 304.7419  2.00563957209842
NAVSTAR 48 (USA 151)    
1 26407U 00040A   26062.83296957 -.00000004  00000+0  00000+0 0  9991
2 26407  54.8757 219.3443 0122714 302.5295 230.0729  2.00568901187837
NAVSTAR 51 (USA 166)    
1 27663U 03005A   26062.42063535 -.00000005  00000+0  00000+0 0  9990
2 27663  54.9076 219.1686 0148734  52.7101 318.0754  2.00566304169193
NAVSTAR 54 (USA 177)    
1 28190U 04009A   26062.93632317 -.00000018  00000+0  00000+0 0  9991
2 28190  54.9161 279.9387 0110939 169.0537  10.0125  2.00558102160837
NAVSTAR 56 (USA 180)    
1 28474U 04045A   26062.59556058 -.00000091  00000+0  00000+0 0  9996
2 28474  55.1952 329.1518 0170861 312.7942  43.5969  2.00573334156302
NAVSTAR 57 (USA 183)    
1 28874U 05038A   26061.34676233 -.00000001  00000+0  00000+0 0  9994
2 28874  54.9646 277.4881 0128856 295.3112 199.7188  2.00573091149694
NAVSTAR 58 (USA 190)    
1 29486U 06042A   26062.31560928 -.00000004  00000+0  00000+0 0  9994
2 29486  54.6983 155.5433 0106749  52.8742 318.7308  2.00575364142275
NAVSTAR 59 (USA 192)    
1 29601U 06052A   26062.71518355 -.00000005  00000+0  00000+0 0  9996
2 29601  54.9574 218.1844 0087880  89.3488 271.6075  2.00551577141290
NAVSTAR 60 (USA 196)    
1 32260U 07047A   26062.52345086  .00000003  00000+0  00000+0 0  9991
2 32260  54.0150  84.4198 0163594  85.9453 275.9860  2.00560744134694
NAVSTAR 61 (USA 199)    
1 32384U 07062A   26062.57984922 -.00000013  00000+0  00000+0 0  9990
2 32384  55.1154 278.3967 0032908 160.6521   8.1657  2.00553462133391
NAVSTAR 62 (USA 201)    
1 32711U 08012A   26062.44174323 -.00000002  00000+0  00000+0 0  9990
2 32711  54.4823 154.1506 0206918 246.1685 111.6763  2.00569135131632
NAVSTAR 64 (USA 206)    
1 35752U 09043A   26062.93163618 -.00000084  00000+0  00000+0 0  9992
2 35752  56.1479  31.5862 0051695  80.7054 288.9637  2.00560448121254
NAVSTAR 65 (USA 213)    
1 36585U 10022A   26062.92419359 -.00000006  00000+0  00000+0 0  9995
2 36585  54.2890 212.8003 0127354  65.8755  55.1962  2.00557227115488
NAVSTAR 67 (USA 239)    
1 38833U 12053A   26062.61980185  .00000002  00000+0  00000+0 0  9990
2 38833  53.5658 147.9256 0176929  64.7741 297.0883  2.00565790 97328
NAVSTAR 68 (USA 242)    
1 39166U 13023A   26060.98893270  .00000006  00000+0  00000+0 0  9998
2 39166  54.5878 273.3391 0141552  49.8819 311.3944  2.00564153 93732
NAVSTAR 69 (USA 248)    
1 39533U 14008A   26061.48588350 -.00000013  00000+0  00000+0 0  9995
2 39533  53.6376 153.6733 0082226 228.2234 131.0919  2.00552925 87544
NAVSTAR 70 (USA 251)    
1 39741U 14026A   26062.76125815 -.00000097  00000+0  00000+0 0  9993
2 39741  56.5468 335.6247 0039878 324.4781  35.2898  2.00568709 86426
